AEHF-3 (USA 246)        
1 39256U 13050A   25261.23308755  .00000011  00000+0  00000+0 0  9993
2 39256   4.6169  69.6029 0091786 179.4791  68.0356  1.00274987 42927
ASTRA 2E                
1 39285U 13056A   25261.15942056  .00000130  00000+0  00000+0 0  9992
2 39285   0.0933 307.3389 0003133 239.4237 256.4215  1.00272965 43696
FM-6                    
1 39360U 13058A   25260.91668433 -.00000037  00000+0  00000+0 0  9992
2 39360   0.0229 133.9550 0002469  35.9622  41.0053  1.00269857 43334
RADUGA-1M 3             
1 39375U 13062A   25261.16072056  .00000136  00000+0  00000+0 0  9990
2 39375   5.2665  75.6601 0002808 292.3737  82.1741  1.00273662 43387
SES-8                   
1 39460U 13071A   25261.10126698 -.00000290  00000+0  00000+0 0  9993
2 39460   0.0476 268.5002 0001842 253.4678 326.7402  1.00271178 41707
INMARSAT 5-F1           
1 39476U 13073A   25261.16626726  .00000008  00000+0  00000+0 0  9991
2 39476   0.0185 161.1387 0000393 112.7102 205.9601  1.00270430 42861
TKSAT-1 (TUPAC KATARI)  
1 39481U 13075A   25260.99379986 -.00000215  00000+0  00000+0 0  9993
2 39481   0.0393  40.2736 0002220 143.7452  83.7242  1.00270985 42864
EXPRESS-AM5             
1 39487U 13077A   25261.32426660  .00000000  00000+0  00000+0 0  9992
2 39487   0.0255 171.3370 0000194 165.7788 277.1435  1.00270047 43639
GSAT-14                 
1 39498U 14001A   25261.16711435 -.00000097  00000+0  00000+0 0  9998
2 39498   0.0368 268.6865 0004311 302.4302 280.3416  1.00271621 42657
THAICOM 6               
1 39500U 14002A   25261.16921394 -.00000142  00000+0  00000+0 0  9991
2 39500   0.0412 120.5821 0004433  70.0630 306.1419  1.00274043 42736
TDRS 12                 
1 39504U 14004A   25261.21379010 -.00000287  00000+0  00000+0 0  9995
2 39504   3.7388  13.9079 0006252 214.8525 164.5707  1.00277786 41556
ABS-2                   
1 39508U 14006A   25261.16869392 -.00000107  00000+0  00000+0 0  9993
2 39508   0.0206 208.8473 0003551 328.4542 315.6852  1.00271933 42551
ATHENA-FIDUS            
1 39509U 14006B   25261.16132722  .00000134  00000+0  00000+0 0  9993
2 39509   0.0133 208.4128 0001758 357.3883 247.3988  1.00272168 42350
TURKSAT 4A              
1 39522U 14007A   25261.16210723  .00000126  00000+0  00000+0 0  9998
2 39522   0.0657 291.1658 0003458 315.3461 211.1636  1.00271366 42244
EXPRESS-AT1             
1 39612U 14010A   25261.17336696  .00000058  00000+0  00000+0 0  9995
2 39612   0.0202 205.7742 0000220 246.3102  23.6670  1.00271320 42091
EXPRESS-AT2             
1 39613U 14010B   25261.32426660 -.00000302  00000+0  00000+0 0  9997
2 39613   0.0268 254.5796 0000231 149.5409 209.9482  1.00272415 41771
AMAZONAS 4A             
1 39616U 14011A   25261.22752986 -.00000273  00000+0  00000+0 0  9990
2 39616   0.0593 151.6724 0005066  39.8626 173.7800  1.00272492 41986
ASTRA 5B                
1 39617U 14011B   25261.15846721  .00000116  00000+0  00000+0 0  9999
2 39617   0.0879 301.6604 0003361 258.1229 238.0684  1.00272056 41935
IRNSS-1B                
1 39635U 14017A   25261.02822362  .00000096  00000+0  00000+0 0  9993
2 39635  28.9840 245.0529 0019655 193.1545 344.1723  1.00272206 42066
LUCH-5V                 
1 39727U 14023A   25261.31533990 -.00000287  00000+0  00000+0 0  9993
2 39727   4.4491  72.3067 0003136 149.0316 344.4463  1.00272085 41631
KAZSAT-3                
1 39728U 14023B   25261.16540058  .00000040  00000+0  00000+0 0  9996
2 39728   0.0304  49.8241 0000506 232.5127 193.0476  1.00270884 39731
EUTELSAT 3B             
1 39773U 14030A   25261.20114394  .00000000  00000+0  00000+0 0  9995
2 39773   0.0638 348.9731 0004520 188.9849 254.9411  1.00273744 41336
ASIASAT 8 (AMOS-7)      
1 40107U 14046A   25261.03193336 -.00000353  00000+0  00000+0 0  9991
2 40107   0.0161 125.3867 0001352  70.6961 277.9291  1.00270972 99423
ASIASAT 6               
1 40141U 14052A   25260.99822494 -.00000383  00000+0  00000+0 0  9997
2 40141   0.0376 265.9153 0000901 263.7126 306.8101  1.00270482 40340
OPTUS 10                
1 40146U 14054A   25260.89926426 -.00000167  00000+0  00000+0 0  9993
2 40146   0.0690 300.6021 0002961 237.3573 298.8738  1.00272019 40306
MEASAT-3B               
1 40147U 14054B   25261.10057365 -.00000262  00000+0  00000+0 0  9992
2 40147   0.0441  37.4067 0001123  85.7443   1.8410  1.00272420 40187
LUCH (OLYMP-K 1)        
1 40258U 14058A   25254.66910192 -.00000002  00000+0  00000+0 0  9990
2 40258   1.1668  86.5420 0000857 149.1303  61.6779  1.00273786 38202
HIMAWARI-8              
1 40267U 14060A   25261.18308784 -.00000296  00000+0  00000+0 0  9991
2 40267   0.0197 202.7116 0000681 349.4609  11.7419  1.00270207 40025
IRNSS-1C                
1 40269U 14061A   25261.14643014 -.00000182  00000+0  00000+0 0  9992
2 40269   5.8179  94.3875 0020035   5.0216  33.9462  1.00271279 39966
INTELSAT 30 (IS-30)     
1 40271U 14062A   25261.13498044  .00000000  00000+0  00000+0 0  9994
2 40271   0.0225 133.9842 0001339 269.1526 267.6939  1.00268398  4050
ARSAT 1                 
1 40272U 14062B   25261.22752986 -.00000280  00000+0  00000+0 0  9994
2 40272   0.0389 306.8215 0001731 228.0893 192.5876  1.00270914 39886
EXPRESS-AM6             
1 40277U 14064A   25261.25600213  .00000000  00000+0  00000+0 0  9998
2 40277   0.0263 159.1308 0001470  44.8782 298.5659  1.00271615 38845
GSAT-16                 
1 40332U 14078A   25260.93655824  .00000064  00000+0  00000+0 0  9997
2 40332   0.0156 124.5601 0005038 351.1400 273.6546  1.00273593 39370
DIRECTV 14              
1 40333U 14078B   25261.13411377  .00000000  00000+0  00000+0 0  9994
2 40333   0.0221 161.3017 0000414 105.6828  39.3767  1.00268552 39318
YAMAL 401               
1 40345U 14082A   25261.03447369 -.00000249  00000+0  00000+0 0  9997
2 40345   0.0101 153.4850 0000736  96.3174 209.7647  1.00273224 39189
ASTRA 2G                
1 40364U 14089A   25261.15942056  .00000000  00000+0  00000+0 0  9995
2 40364   0.0223  21.3541 0002196  74.9977 346.5453  1.00271246 39244
FENGYUN 2G              
1 40367U 14090A   25261.03080669 -.00000320  00000+0  00000+0 0  9996
2 40367   4.9471  76.1164 0003547 178.1860 213.4477  1.00278480 39271
MUOS-3                  
1 40374U 15002A   25261.20669610 -.00000146  00000+0  00000+0 0  9992
2 40374   4.0049  41.7245 0059534 178.6030 195.9192  1.00270229 38865
INMARSAT 5-F2           
1 40384U 15005A   25261.22197473 -.00000306  00000+0  00000+0 0  9999
2 40384   0.0045  81.9880 0000159  57.4133 242.9142  1.00271618 38261
ABS-3A                  
1 40424U 15010A   25261.20114394 -.00000047  00000+0  00000+0 0  9991
2 40424   0.0119 155.3982 0001549 330.9998 300.3891  1.00270917 38642
EUTELSAT 115 WEST B     
1 40425U 15010B   25260.63142718 -.00000046  00000+0  00000+0 0  9998
2 40425   0.0370  17.6189 0000013 340.9911 110.6181  1.00271046 38662
EXPRESS-AM7             
1 40505U 15012A   25261.26155964  .00000130  00000+0  00000+0 0  9999
2 40505   0.0145 236.3975 0003220 319.0423 296.1775  1.00275540 38282
BEIDOU-3S IGSO-1S       
1 40549U 15019A   25257.08844315 -.00000146  00000+0  00000+0 0  9992
2 40549  49.7179 298.7880 0041392 196.1629 342.9667  1.00258147 38305
THOR 7                  
1 40613U 15022A   25261.20114394 -.00000029  00000+0  00000+0 0  9994
2 40613   0.0062 140.4944 0002579  45.7947 242.8380  1.00271401 38081
TURKMENALEM52E/MONACOSAT
1 40617U 15023A   25261.16410058  .00000083  00000+0  00000+0 0  9999
2 40617   0.0158 161.5132 0002741  25.6375 281.2997  1.00274904 38124
DIRECTV 15              
1 40663U 15026A   25261.16364593 -.00000123  00000+0  00000+0 0  9991
2 40663   0.0370  93.6278 0000194  52.0009 167.7515  1.00270931 37731
SKY MEXICO-1            
1 40664U 15026B   25260.99544653 -.00000255  00000+0  00000+0 0  9995
2 40664   0.0198 101.0324 0002171  91.9916  83.7398  1.00270885 37725
METEOSAT-11 (MSG-4)     
1 40732U 15034A   25261.15560720  .00000043  00000+0  00000+0 0  9996
2 40732   2.5166  72.2143 0000565 128.0537 222.3214  1.00274257  4489
STAR ONE C4             
1 40733U 15034B   25261.22752986 -.00000285  00000+0  00000+0 0  9991
2 40733   0.0497 324.9196 0001729 246.1645 158.2177  1.00271113 37287
WGS F7 (USA 263)        
1 40746U 15036A   25261.19697456 -.00000003  00000+0  00000+0 0  9991
2 40746   0.0028 180.6067 0000212  25.6389  37.0239  1.00271761 37143
INTELSAT 34 (IS-34)     
1 40874U 15039A   25261.22197473  .00000000  00000+0  00000+0 0  9990
2 40874   0.0209 177.3094 0001573 189.9803  14.5032  1.00267013 36892
EUTELSAT 8 WEST B       
1 40875U 15039B   25261.20669610 -.00000086  00000+0  00000+0 0  9991
2 40875   0.0702  13.8437 0003739 164.8269 245.1325  1.00272446 36927
GSAT-6                  
1 40880U 15041A   25261.16155928 -.00000179  00000+0  00000+0 0  9990
2 40880   1.2105  86.2144 0003302  93.1752 318.5998  1.00269520 36873
INMARSAT 5-F3           
1 40882U 15042A   25260.83261730  .00000030  00000+0  00000+0 0  9990
2 40882   0.0140 169.0502 0000198 246.4785  60.8283  1.00273602 36834
MUOS-4                  
1 40887U 15044A   25261.14643014 -.00000111  00000+0  00000+0 0  9992
2 40887   3.8288  39.9131 0052496   3.0458  82.0975  1.00271845 36839
TJS-1                   
1 40892U 15046A   25261.25588096  .00000000  00000+0  00000+0 0  9996
2 40892   0.0202 167.3055 0003031  54.8484  22.4006  1.00266988 36841
EXPRESS-AM8             
1 40895U 15048A   25261.29903721 -.00000132  00000+0  00000+0 0  9998
2 40895   0.0181 212.4832 0000106 172.3450  66.2926  1.00272130 36612
BEIDOU-3S IGSO-2S       
1 40938U 15053A   25260.62821684 -.00000101  00000+0  00000+0 0  9991
2 40938  49.6475 262.0216 0062308 189.5151 225.6705  1.00289767 36623
SKY MUSTER 1 (NBN1A)    
1 40940U 15054A   25260.96750973 -.00000299  00000+0  00000+0 0  9992
2 40940   0.0119 219.5014 0001642 317.1960 308.9691  1.00270944 36532
